[{"OBJECT_NAME":"STARLINK-30757","OBJECT_ID":"2023-162P","EPOCH":"2026-03-09T22:00:01.999584","MEAN_MOTION":15.27592819,"ECCENTRICITY":0.00015385,"INCLINATION":43.0003,"RA_OF_ASC_NODE":127.8742,"ARG_OF_PERICENTER":261.5076,"MEAN_ANOMALY":359.8957,"EPHEMERIS_TYPE":0,"CLASSIFICATION_TYPE":"U","NORAD_CAT_ID":58131,"ELEMENT_SET_NO":999,"REV_AT_EPOCH":578,"BSTAR":-0.0004740863,"MEAN_MOTION_DOT":-0.0001329,"MEAN_MOTION_DDOT":0},{"OBJECT_NAME":"OBJECT B","OBJECT_ID":"2024-203B","EPOCH":"2026-03-09T23:52:52.928256","MEAN_MOTION":15.27506959,"ECCENTRICITY":0.00103904,"INCLINATION":97.4268,"RA_OF_ASC_NODE":139.5887,"ARG_OF_PERICENTER":321.1475,"MEAN_ANOMALY":38.9016,"EPHEMERIS_TYPE":0,"CLASSIFICATION_TYPE":"U","NORAD_CAT_ID":61870,"ELEMENT_SET_NO":999,"REV_AT_EPOCH":7381,"BSTAR":0.00063263842,"MEAN_MOTION_DOT":0.00016997,"MEAN_MOTION_DDOT":0}]
